{"type": "FeatureCollection", "features": [ {"type": "Feature", "properties": {"norad_id": 64901, "name": "CO3D 4", "group": "resource", "lat": -25.129166887254154, "lon": 63.40717957560338, "alt_km": 511.2477931193225, "timestamp": "2025-12-09T11:33:54.458455+00:00", "meta": {"OBJECT_NAME": "CO3D 4", "OBJECT_ID": "2025-156C", "EPOCH": "2025-12-09T05:21:26.977824", "MEAN_MOTION": 15.20208055, "ECCENTRICITY": 0.0001078, "INCLINATION": 97.4339, "RA_OF_ASC_NODE": 59.641, "ARG_OF_PERICENTER": 216.8926, "MEAN_ANOMALY": 143.2235, "EPHEMERIS_TYPE": 0, "CLASSIFICATION_TYPE": "U", "NORAD_CAT_ID": 64901, "ELEMENT_SET_NO": 999, "REV_AT_EPOCH": 2067, "BSTAR": 0.00039414, "MEAN_MOTION_DOT": 8.476e-05, "MEAN_MOTION_DDOT": 0}, "tle": {"line1": "1 64901U 25156C   25343.22322891  .00008476  00000+0  39414-3 0  9993", "line2": "2 64901  97.4339  59.6410 0001078 216.8926 143.2235 15.20208055 20675"}}, "geometry": {"type": "Point", "coordinates": [63.40717957560338, -25.129166887254154]}}, {"type": "Feature", "properties": {"norad_id": 64902, "name": "CO3D 2", "group": "resource", "lat": 22.530074121071042, "lon": -117.1006048296893, "alt_km": 504.6938579995913, "timestamp": "2025-12-09T11:33:54.458465+00:00", "meta": {"OBJECT_NAME": "CO3D 2", "OBJECT_ID": "2025-156D", "EPOCH": "2025-12-09T04:33:25.893792", "MEAN_MOTION": 15.20212948, "ECCENTRICITY": 9.37e-05, "INCLINATION": 97.4339, "RA_OF_ASC_NODE": 59.5067, "ARG_OF_PERICENTER": 90.5479, "MEAN_ANOMALY": 269.5863, "EPHEMERIS_TYPE": 0, "CLASSIFICATION_TYPE": "U", "NORAD_CAT_ID": 64902, "ELEMENT_SET_NO": 999, "REV_AT_EPOCH": 2066, "BSTAR": 0.00033656, "MEAN_MOTION_DOT": 7.227e-05, "MEAN_MOTION_DDOT": 0}, "tle": {"line1": "1 64902U 25156D   25343.18988303  .00007227  00000+0  33656-3 0  9990", "line2": "2 64902  97.4339  59.5067 0000937  90.5479 269.5863 15.20212948 20660"}}, "geometry": {"type": "Point", "coordinates": [-117.1006048296893, 22.530074121071042]}}, {"type": "Feature", "properties": {"norad_id": 64903, "name": "CO3D 1", "group": "resource", "lat": 23.39827066066162, "lon": -116.96664578239654, "alt_km": 504.4817203058574, "timestamp": "2025-12-09T11:33:54.458474+00:00", "meta": {"OBJECT_NAME": "CO3D 1", "OBJECT_ID": "2025-156E", "EPOCH": "2025-12-09T04:33:39.539808", "MEAN_MOTION": 15.20201542, "ECCENTRICITY": 9.63e-05, "INCLINATION": 97.4341, "RA_OF_ASC_NODE": 59.5068, "ARG_OF_PERICENTER": 99.398, "MEAN_ANOMALY": 260.7364, "EPHEMERIS_TYPE": 0, "CLASSIFICATION_TYPE": "U", "NORAD_CAT_ID": 64903, "ELEMENT_SET_NO": 999, "REV_AT_EPOCH": 2066, "BSTAR": 0.00035489, "MEAN_MOTION_DOT": 7.623e-05, "MEAN_MOTION_DDOT": 0}, "tle": {"line1": "1 64903U 25156E   25343.19004097  .00007623  00000+0  35489-3 0  9997", "line2": "2 64903  97.4341  59.5068 0000963  99.3980 260.7364 15.20201542 20665"}}, "geometry": {"type": "Point", "coordinates": [-116.96664578239654, 23.39827066066162]}}, {"type": "Feature", "properties": {"norad_id": 66514, "name": "SENTINEL-6B", "group": "resource", "lat": -6.810974614224712, "lon": -7.745656164511181, "alt_km": 1325.392393891897, "timestamp": "2025-12-09T11:33:54.458484+00:00", "meta": {"OBJECT_NAME": "SENTINEL-6B", "OBJECT_ID": "2025-264A", "EPOCH": "2025-12-08T23:22:28.384032", "MEAN_MOTION": 12.84031992, "ECCENTRICITY": 0.0021041, "INCLINATION": 66.0385, "RA_OF_ASC_NODE": 170.2707, "ARG_OF_PERICENTER": 268.23, "MEAN_ANOMALY": 91.6307, "EPHEMERIS_TYPE": 0, "CLASSIFICATION_TYPE": "U", "NORAD_CAT_ID": 66514, "ELEMENT_SET_NO": 999, "REV_AT_EPOCH": 280, "BSTAR": 0.00010602, "MEAN_MOTION_DOT": -3.6e-07, "MEAN_MOTION_DDOT": 0}, "tle": {"line1": "1 66514U 25264A   25342.97393963 -.00000036  00000+0  10602-3 0  9997", "line2": "2 66514  66.0385 170.2707 0021041 268.2300  91.6307 12.84031992  2800"}}, "geometry": {"type": "Point", "coordinates": [-7.745656164511181, -6.810974614224712]}}]}